CSS (TIANHE)            
1 48274U 21035A   24038.98556732  .00026184  00000+0  28025-3 0  9998
2 48274  41.4680 158.6654 0007991 321.6082  38.4188 15.63218608158717
